[{"OBJECT_NAME":"STARLINK-11288 [DTC]","OBJECT_ID":"2024-158N","EPOCH":"2026-03-09T20:39:53.524224","MEAN_MOTION":15.69700387,"ECCENTRICITY":8.765e-5,"INCLINATION":53.1589,"RA_OF_ASC_NODE":280.2647,"ARG_OF_PERICENTER":44.5508,"MEAN_ANOMALY":315.5581,"EPHEMERIS_TYPE":0,"CLASSIFICATION_TYPE":"U","NORAD_CAT_ID":61002,"ELEMENT_SET_NO":999,"REV_AT_EPOCH":8761,"BSTAR":-4.424386e-6,"MEAN_MOTION_DOT":-1.124e-5,"MEAN_MOTION_DDOT":0},{"OBJECT_NAME":"SCOUT X-1 DEB","OBJECT_ID":"1961-004F","EPOCH":"2026-03-01T00:08:32.328672","MEAN_MOTION":15.46428893,"ECCENTRICITY":0.00336749,"INCLINATION":39.0085,"RA_OF_ASC_NODE":274.0703,"ARG_OF_PERICENTER":55.969,"MEAN_ANOMALY":304.4293,"EPHEMERIS_TYPE":0,"CLASSIFICATION_TYPE":"U","NORAD_CAT_ID":3927,"ELEMENT_SET_NO":999,"REV_AT_EPOCH":11451,"BSTAR":0.009395543,"MEAN_MOTION_DOT":0.00520474,"MEAN_MOTION_DDOT":0}]
